H1 CPF 01  gfz 2022 07 24 12  7052 tandemx   
H2 1003001  6202 36605    2022 07 24 12 59 42 2022 07 29 00 00 42   120 1 1  0 0 0
H9
10 0 59785  26622.000000  0   -6135328.551   2552080.586   1809410.376
10 0 59785  26742.000000  0   -5791886.493   2601782.716   2663749.470
10 0 59785  26862.000000  0   -5346750.233   2599088.355   3471173.739
10 0 59785  26982.000000  0   -4808648.138   2542347.584   4217472.166
10 0 59785  27102.000000  0   -4187960.706   2431027.637   4889523.046
10 0 59785  27222.000000  0   -3496512.346   2265746.501   5475524.765
10 0 59785  27342.000000  0   -2747338.673   2048282.688   5965201.514
10 0 59785  27462.000000  0   -1954432.927   1781560.496   6349979.966
10 0 59785  27582.000000  0   -1132478.528   1469610.776   6623133.510
10 0 59785  27702.000000  0    -296573.871   1117508.824   6779892.412
10 0 59785  27822.000000  0     538044.840    731290.739   6817521.244
10 0 59785  27942.000000  0    1356280.406    317849.622   6735363.515
10 0 59785  28062.000000  0    2143446.387   -115186.788   6534852.385
10 0 59785  28182.000000  0    2885529.897   -559596.089   6219488.283
10 0 59785  28302.000000  0    3569442.358  -1006716.268   5794782.340
10 0 59785  28422.000000  0    4183253.879  -1447613.239   5268165.466
10 0 59785  28542.000000  0    4716405.770  -1873258.819   4648863.839
10 0 59785  28662.000000  0    5159898.875  -2274714.727   3947743.476
10 0 59785  28782.000000  0    5506454.784  -2643320.065   3177123.445
10 0 59785  28902.000000  0    5750643.223  -2970877.662   2350559.063
10 0 59785  29022.000000  0    5888972.687  -3249834.415   1482601.603
10 0 59785  29142.000000  0    5919944.384  -3473452.404    588537.893
10 0 59785  29262.000000  0    5844064.944  -3635964.893   -315886.803
10 0 59785  29382.000000  0    5663819.493  -3732713.920  -1214754.475
10 0 59785  29502.000000  0    5383603.309  -3760264.864  -2092264.450
10 0 59785  29622.000000  0    5009615.551  -3716495.588  -2933018.069
10 0 59785  29742.000000  0    4549718.497  -3600659.314  -3722293.826
10 0 59785  29862.000000  0    4013265.543  -3413418.795  -4446306.676
10 0 59785  29982.000000  0    3410903.277  -3156851.790  -5092446.674
10 0 59785  30102.000000  0    2754352.899  -2834427.520  -5649492.088
10 0 59785  30222.000000  0    2056177.695  -2450957.302  -6107794.020
10 0 59785  30342.000000  0    1329541.298  -2012520.615  -6459433.674
10 0 59785  30462.000000  0     587958.980  -1526365.286  -6698349.527
10 0 59785  30582.000000  0    -154951.464  -1000786.013  -6820430.786
10 0 59785  30702.000000  0    -885714.814   -444984.063  -6823579.535
10 0 59785  30822.000000  0   -1591236.776    131090.382  -6707742.588
10 0 59785  30942.000000  0   -2259033.355    716912.030  -6474911.606
10 0 59785  31062.000000  0   -2877446.496   1301567.558  -6129092.382
10 0 59785  31182.000000  0   -3435844.168   1873953.771  -5676243.814
10 0 59785  31302.000000  0   -3924803.783   2422984.447  -5124186.874
10 0 59785  31422.000000  0   -4336275.641   2937803.424  -4482481.004
10 0 59785  31542.000000  0   -4663721.183   3407998.927  -3762268.416
10 0 59785  31662.000000  0   -4902223.706   3823815.245  -2976090.506
10 0 59785  31782.000000  0   -5048569.986   4176357.915  -2137675.977
10 0 59785  31902.000000  0   -5101299.120   4457786.222  -1261704.057
10 0 59785  32022.000000  0   -5060718.051   4661489.344   -363546.617
10 0 59785  32142.000000  0   -4928881.190   4782240.888    541006.604
10 0 59785  32262.000000  0   -4709534.213   4816326.969   1436033.805
10 0 59785  32382.000000  0   -4408023.170   4761643.073   2305771.178
10 0 59785  32502.000000  0   -4031170.088   4617758.671   3134899.649
10 0 59785  32622.000000  0   -3587119.727   4385947.668   3908821.725
10 0 59785  32742.000000  0   -3085162.326   4069184.079   4613923.164
10 0 59785  32862.000000  0   -2535536.370   3672103.659   5237815.135
10 0 59785  32982.000000  0   -1949215.405   3200931.764   5769551.468
10 0 59785  33102.000000  0   -1337684.812   2663380.072   6199817.157
10 0 59785  33222.000000  0    -712713.485   2068514.336   6521085.432
10 0 59785  33342.000000  0     -86127.171   1426597.502   6727741.992
10 0 59785  33462.000000  0     530415.003    748910.324   6816178.341
10 0 59785  33582.000000  0    1125637.031     47552.378   6784850.061
10 0 59785  33702.000000  0    1688851.048   -664773.012   6634302.472
10 0 59785  33822.000000  0    2210148.724  -1374988.483   6367162.314
10 0 59785  33942.000000  0    2680575.886  -2069881.795   5988095.361
10 0 59785  34062.000000  0    3092288.747  -2736352.313   5503730.464
10 0 59785  34182.000000  0    3438687.537  -3361659.607   4922549.102
10 0 59785  34302.000000  0    3714525.800  -3933670.326   4254742.851
10 0 59785  34422.000000  0    3915993.821  -4441098.477   3512038.985
10 0 59785  34542.000000  0    4040772.753  -4873733.899   2707496.293
10 0 59785  34662.000000  0    4088059.009  -5222653.577   1855274.667
10 0 59785  34782.000000  0    4058557.682  -5480410.126    970381.841
10 0 59785  34902.000000  0    3954444.401  -5641192.211     68402.474
10 0 59785  35022.000000  0    3779297.868  -5700953.392   -834783.242
10 0 59785  35142.000000  0    3538003.542  -5657507.055  -1723288.836
10 0 59785  35262.000000  0    3236630.240  -5510581.967  -2581509.163
10 0 59785  35382.000000  0    2882285.187  -5261840.044  -3394400.840
10 0 59785  35502.000000  0    2482949.169  -4914854.569  -4147749.971
10 0 59785  35622.000000  0    2047297.010  -4475050.579  -4828420.099
10 0 59785  35742.000000  0    1584509.211  -3949609.774  -5424576.259
10 0 59785  35862.000000  0    1104079.905  -3347343.566  -5925882.253
10 0 59785  35982.000000  0     615623.610  -2678538.207  -6323669.500
10 0 59785  36102.000000  0     128684.877  -1954774.407  -6611075.932
10 0 59785  36222.000000  0    -347444.640  -1188724.608  -6783153.414
10 0 59785  36342.000000  0    -803898.473   -393932.186  -6836943.925
10 0 59785  36462.000000  0   -1232395.809    415423.998  -6771524.275
10 0 59785  36582.000000  0   -1625388.257   1224775.973  -6588019.451
10 0 59785  36702.000000  0   -1976189.570   2019422.313  -6289585.262
10 0 59785  36822.000000  0   -2279087.516   2784788.426  -5881360.611
10 0 59785  36942.000000  0   -2529437.263   3506690.419  -5370389.002
10 0 59785  37062.000000  0   -2723733.596   4171597.081  -4765508.511
10 0 59785  37182.000000  0   -2859661.897   4766886.664  -4077210.204
10 0 59785  37302.000000  0   -2936125.038   5281091.760  -3317464.797
10 0 59785  37422.000000  0   -2953245.319   5704126.291  -2499522.232
10 0 59785  37542.000000  0   -2912342.818   6027493.186  -1637686.557
10 0 59785  37662.000000  0   -2815888.135   6244465.065   -747065.457
10 0 59785  37782.000000  0   -2667431.102   6350230.591    156696.925
10 0 59785  37902.000000  0   -2471508.825   6342008.253   1057699.989
10 0 59785  38022.000000  0   -2233530.717   6219118.274   1940078.218
10 0 59785  38142.000000  0   -1959644.490   5983008.647   2788290.578
10 0 59785  38262.000000  0   -1656588.835   5637238.815   3587401.609
10 0 59785  38382.000000  0   -1331536.425   5187421.922   4323349.734
10 0 59785  38502.000000  0    -991930.829   4641126.528   4983198.516
10 0 59785  38622.000000  0    -645319.339   4007739.517   5555364.566
10 0 59785  38742.000000  0    -299188.856   3298296.318   6029817.481
10 0 59785  38862.000000  0      39192.456   2525280.153   6398251.628
10 0 59785  38982.000000  0     362925.032   1702396.393   6654224.948
10 0 59785  39102.000000  0     665616.537    844325.748   6793266.224
10 0 59785  39222.000000  0     941506.335    -33539.452   6812947.342
10 0 59785  39342.000000  0    1185573.960   -915370.093   6712923.455
10 0 59785  39462.000000  0    1393630.155  -1785185.472   6494939.481
10 0 59785  39582.000000  0    1562389.056  -2627142.433   6162801.960
10 0 59785  39702.000000  0    1689520.343  -3425825.253   5722316.960
10 0 59785  39822.000000  0    1773680.107  -4166530.768   5181193.342
10 0 59785  39942.000000  0    1814520.665  -4835542.201   4548912.959
10 0 59785  40062.000000  0    1812679.843  -5420389.545   3836571.251
10 0 59785  40182.000000  0    1769748.793  -5910092.112   3056685.567
10 0 59785  40302.000000  0    1688217.479  -6295373.103   2222974.479
10 0 59785  40422.000000  0    1571401.341  -6568843.392   1350115.000
10 0 59785  40542.000000  0    1423349.902  -6725151.373    453479.983
10 0 59785  40662.000000  0    1248738.762  -6761093.297   -451139.654
10 0 59785  40782.000000  0    1052747.068  -6675681.580  -1347823.670
10 0 59785  40902.000000  0     840924.739  -6470163.945  -2220812.886
10 0 59785  41022.000000  0     619053.398  -6147997.899  -3054792.385
10 0 59785  41142.000000  0     393005.645  -5714783.091  -3835164.368
10 0 59785  41262.000000  0     168604.269  -5178151.961  -4548305.136
10 0 59785  41382.000000  0     -48514.860  -4547621.861  -5181799.648
10 0 59785  41502.000000  0    -253032.305  -3834414.795  -5724650.865
10 0 59785  41622.000000  0    -440064.467  -3051247.916  -6167461.478
10 0 59785  41742.000000  0    -605270.319  -2212100.269  -6502585.436
10 0 59785  41862.000000  0    -744943.994  -1331960.555  -6724248.374
10 0 59785  41982.000000  0    -856091.673   -426561.080  -6828637.161
10 0 59785  42102.000000  0    -936491.411    487899.565  -6813958.361
10 0 59785  42222.000000  0    -984735.333   1395039.237  -6680464.479
10 0 59785  42342.000000  0   -1000253.842   2278578.069  -6430450.059
10 0 59785  42462.000000  0    -983321.312   3122623.281  -6068217.112
10 0 59785  42582.000000  0    -935043.262   3911951.472  -5600010.260
10 0 59785  42702.000000  0    -857324.990   4632282.330  -5033919.287
10 0 59785  42822.000000  0    -752822.251   5270540.169  -4379751.280
10 0 59785  42942.000000  0    -624874.890   5815098.590  -3648870.977
10 0 59785  43062.000000  0    -477423.935   6256001.700  -2854011.483
99
